ISS OBJECT XY           
1 66912U 98067XY  26071.20145760  .00102225  00000+0  10452-2 0  9990
2 66912  51.6274  54.4268 0003306 103.5482 256.5881 15.64208185 15545
KNACKSAT-2              
1 67683U 98067XZ  26071.23893802  .00043165  00000+0  70562-3 0  9992
2 67683  51.6313  59.1802 0009518 194.9856 165.0853 15.52051154  5182
GXIBA-1                 
1 67684U 98067YA  26071.14313469  .00082736  00000+0  12130-2 0  9992
2 67684  51.6306  59.2916 0011254 184.0724 176.0177 15.54753471  5179
CORAL                   
1 67685U 98067YB  26071.23388676  .00049209  00000+0  79090-3 0  9992
2 67685  51.6309  59.1474 0011422 191.5004 168.5727 15.52443441  5181
ISS OBJECT YC           
1 67686U 98067YC  26071.22744256  .00058683  00000+0  92197-3 0  9991
2 67686  51.6316  59.1062 0008146 159.4103 200.7217 15.53034287  5183
LEOPARD                 
1 67687U 98067YD  26071.23629947  .00046038  00000+0  74707-3 0  9990
2 67687  51.6323  59.1654 0008017 163.4161 196.7093 15.52242324  5105
ISS OBJECT YE           
1 67688U 98067YE  26071.23036786  .00055087  00000+0  87496-3 0  9997
2 67688  51.6315  59.1259 0008000 160.3071 199.8229 15.52760084  5109
CREW DRAGON 12          
1 67796U 26031A   26071.15917150  .00009166  00000+0  17667-3 0  9993
2 67796  51.6325  60.1463 0007984 183.4136 176.6799 15.48595269556615
